start=new Date('2023-03-26T00:00:00.000Z').valueOf();
sats=[{"EPHEMERIS_TYPE":"0","OBJECT_NAME":"STARLINK-4146","MEAN_ANOMALY":"254.9461","COUNTRY_CODE":"US","NORAD_CAT_ID":"53294","SEMIMAJOR_AXIS":"6917.945","CENTER_NAME":"EARTH","RCS_SIZE":"LARGE","FILE":"3871104","PERIAPSIS":"538.942","MEAN_MOTION":"15.08818731","CLASSIFICATION_TYPE":"U","TIME_SYSTEM":"UTC","MEAN_ELEMENT_THEORY":"SGP4","BSTAR":"0.00106390000000","REV_AT_EPOCH":"3836","SITE":"AFETR","REF_FRAME":"TEME","GP_ID":"228872472","TLE_LINE1":"1 53294U 22086BE  23084.92468684  .00016675  00000-0  10639-2 0  9991","INCLINATION":"53.2164","RA_OF_ASC_NODE":"341.2126","MEAN_MOTION_DOT":"0.00016675","OBJECT_TYPE":"PAYLOAD","ECCENTRICITY":"0.00012560","PERIOD":"95.439","APOAPSIS":"540.679","DECAY_DATE":null,"ARG_OF_PERICENTER":"105.1670","EPOCH":"2023-03-25T22:11:32.942976","ELEMENT_SET_NO":"999","OBJECT_ID":"2022-086BE","LAUNCH_DATE":"2022-07-24","TLE_LINE2":"2 53294  53.2164 341.2126 0001256 105.1670 254.9461 15.08818731 38362","MEAN_MOTION_DDOT":"0.0000000000000"},{"EPOCH":"2023-03-25T21:04:00.144480","ARG_OF_PERICENTER":"80.6164","DECAY_DATE":null,"OBJECT_ID":"2022-097A","ELEMENT_SET_NO":"999","TLE_LINE2":"2 53388  53.2139 291.5888 0001039  80.6164 279.4946 15.08802243 35834","LAUNCH_DATE":"2022-08-10","MEAN_MOTION_DDOT":"0.0000000000000","REF_FRAME":"TEME","TLE_LINE1":"1 53388U 22097A   23084.87777945 -.00015697  00000-0 -97136-3 0  9997","RA_OF_ASC_NODE":"291.5888","INCLINATION":"53.2139","GP_ID":"228873228","OBJECT_TYPE":"PAYLOAD","MEAN_MOTION_DOT":"-0.00015697","APOAPSIS":"540.580","ECCENTRICITY":"0.00010390","PERIOD":"95.440","CENTER_NAME":"EARTH","CLASSIFICATION_TYPE":"U","MEAN_MOTION":"15.08802243","RCS_SIZE":"LARGE","FILE":"3871104","PERIAPSIS":"539.142","BSTAR":"-0.00097136000000","MEAN_ELEMENT_THEORY":"SGP4","TIME_SYSTEM":"UTC","SITE":"AFETR","REV_AT_EPOCH":"3583","OBJECT_NAME":"STARLINK-4522","MEAN_ANOMALY":"279.4946","EPHEMERIS_TYPE":"0","COUNTRY_CODE":"US","NORAD_CAT_ID":"53388","SEMIMAJOR_AXIS":"6917.996"},{"OBJECT_TYPE":"PAYLOAD","MEAN_MOTION_DOT":"0.00014089","APOAPSIS":"540.668","ECCENTRICITY":"0.00010970","PERIOD":"95.441","REF_FRAME":"TEME","TLE_LINE1":"1 53389U 22097B   23084.93666820  .00014089  00000-0  90281-3 0  9990","RA_OF_ASC_NODE":"291.3221","INCLINATION":"53.2138","GP_ID":"228871976","TLE_LINE2":"2 53389  53.2138 291.3221 0001097 106.6465 253.4647 15.08786547 35669","LAUNCH_DATE":"2022-08-10","MEAN_MOTION_DDOT":"0.0000000000000","ARG_OF_PERICENTER":"106.6465","EPOCH":"2023-03-25T22:28:48.132480","DECAY_DATE":null,"OBJECT_ID":"2022-097B","ELEMENT_SET_NO":"999","COUNTRY_CODE":"US","NORAD_CAT_ID":"53389","SEMIMAJOR_AXIS":"6918.044","OBJECT_NAME":"STARLINK-4523","MEAN_ANOMALY":"253.4647","EPHEMERIS_TYPE":"0","BSTAR":"0.00090281000000","TIME_SYSTEM":"UTC","MEAN_ELEMENT_THEORY":"SGP4","SITE":"AFETR","REV_AT_EPOCH":"3566","CENTER_NAME":"EARTH","CLASSIFICATION_TYPE":"U","MEAN_MOTION":"15.08786547","RCS_SIZE":"LARGE","FILE":"3871104","PERIAPSIS":"539.150"},{"EPHEMERIS_TYPE":"0","MEAN_ANOMALY":"235.4576","OBJECT_NAME":"STARLINK-4517","COUNTRY_CODE":"US","SEMIMAJOR_AXIS":"6918.054","NORAD_CAT_ID":"53390","CENTER_NAME":"EARTH","PERIAPSIS":"538.900","RCS_SIZE":"LARGE","FILE":"3871104","MEAN_MOTION":"15.08783041","CLASSIFICATION_TYPE":"U","TIME_SYSTEM":"UTC","MEAN_ELEMENT_THEORY":"SGP4","BSTAR":"0.00097530000000","SITE":"AFETR","REV_AT_EPOCH":"3580","REF_FRAME":"TEME","GP_ID":"228872226","INCLINATION":"53.2134","RA_OF_ASC_NODE":"291.6054","TLE_LINE1":"1 53390U 22097C   23084.87410035  .00015244  00000-0  97530-3 0  9998","MEAN_MOTION_DOT":"0.00015244","OBJECT_TYPE":"PAYLOAD","ECCENTRICITY":"0.00014730","PERIOD":"95.441","APOAPSIS":"540.939","DECAY_DATE":null,"EPOCH":"2023-03-25T20:58:42.270240","ARG_OF_PERICENTER":"124.6555","ELEMENT_SET_NO":"999","OBJECT_ID":"2022-097C","LAUNCH_DATE":"2022-08-10","TLE_LINE2":"2 53390  53.2134 291.6054 0001473 124.6555 235.4576 15.08783041 35805","MEAN_MOTION_DDOT":"0.0000000000000"},{"DECAY_DATE":null,"ARG_OF_PERICENTER":"118.4839","EPOCH":"2023-03-25T20:48:06.577056","ELEMENT_SET_NO":"999","OBJECT_ID":"2022-097D","LAUNCH_DATE":"2022-08-10","TLE_LINE2":"2 53391  53.2143 291.6391 0001347 118.4839 241.6289 15.08787854 35655","MEAN_MOTION_DDOT":"0.0000000000000","REF_FRAME":"TEME","GP_ID":"228872978","INCLINATION":"53.2143","RA_OF_ASC_NODE":"291.6391","TLE_LINE1":"1 53391U 22097D   23084.86674279  .00012135  00000-0  78030-3 0  9990","OBJECT_TYPE":"PAYLOAD","MEAN_MOTION_DOT":"0.00012135","ECCENTRICITY":"0.00013470","PERIOD":"95.441","APOAPSIS":"540.837","CENTER_NAME":"EARTH","PERIAPSIS":"538.973","RCS_SIZE":"LARGE","FILE":"3871104","MEAN_MOTION":"15.08787854","CLASSIFICATION_TYPE":"U","TIME_SYSTEM":"UTC","MEAN_ELEMENT_THEORY":"SGP4","BSTAR":"0.00078030000000","SITE":"AFETR","REV_AT_EPOCH":"3565","EPHEMERIS_TYPE":"0","MEAN_ANOMALY":"241.6289","OBJECT_NAME":"STARLINK-4521","COUNTRY_CODE":"US","NORAD_CAT_ID":"53391","SEMIMAJOR_AXIS":"6918.040"},{"SEMIMAJOR_AXIS":"6918.005","NORAD_CAT_ID":"53392","COUNTRY_CODE":"US","EPHEMERIS_TYPE":"0","OBJECT_NAME":"STARLINK-4535","MEAN_ANOMALY":"292.8856","SITE":"AFETR","REV_AT_EPOCH":"3565","MEAN_ELEMENT_THEORY":"SGP4","TIME_SYSTEM":"UTC","BSTAR":"-0.00061111000000","RCS_SIZE":"LARGE","FILE":"3871104","PERIAPSIS":"539.019","MEAN_MOTION":"15.08799204","CLASSIFICATION_TYPE":"U","CENTER_NAME":"EARTH","PERIOD":"95.440","ECCENTRICITY":"0.00012300","APOAPSIS":"540.721","OBJECT_TYPE":"PAYLOAD","MEAN_MOTION_DOT":"-0.00009989","GP_ID":"228872728","TLE_LINE1":"1 53392U 22097E   23084.85938569 -.00009989  00000-0 -61111-3 0  9992","INCLINATION":"53.2139","RA_OF_ASC_NODE":"291.6713","REF_FRAME":"TEME","MEAN_MOTION_DDOT":"0.0000000000000","LAUNCH_DATE":"2022-08-10","TLE_LINE2":"2 53392  53.2139 291.6713 0001230  67.2266 292.8856 15.08799204 35655","ELEMENT_SET_NO":"999","OBJECT_ID":"2022-097E","DECAY_DATE":null,"EPOCH":"2023-03-25T20:37:30.923616","ARG_OF_PERICENTER":"67.2266"},{"OBJECT_NAME":"STARLINK-4530","MEAN_ANOMALY":"240.3967","EPHEMERIS_TYPE":"0","NORAD_CAT_ID":"53393","SEMIMAJOR_AXIS":"6918.003","COUNTRY_CODE":"US","CLASSIFICATION_TYPE":"U","MEAN_MOTION":"15.08799898","RCS_SIZE":"LARGE","FILE":"3871104","PERIAPSIS":"539.241","CENTER_NAME":"EARTH","SITE":"AFETR","REV_AT_EPOCH":"3565","BSTAR":"-0.00062128000000","MEAN_ELEMENT_THEORY":"SGP4","TIME_SYSTEM":"UTC","TLE_LINE1":"1 53393U 22097F   23084.86306439 -.00010151  00000-0 -62128-3 0  9991","RA_OF_ASC_NODE":"291.6502","INCLINATION":"53.2142","GP_ID":"228871476","REF_FRAME":"TEME","APOAPSIS":"540.495","ECCENTRICITY":"0.00009070","PERIOD":"95.440","MEAN_MOTION_DOT":"-0.00010151","OBJECT_TYPE":"PAYLOAD","OBJECT_ID":"2022-097F","ELEMENT_SET_NO":"999","ARG_OF_PERICENTER":"119.7116","EPOCH":"2023-03-25T20:42:48.763296","DECAY_DATE":null,"MEAN_MOTION_DDOT":"0.0000000000000","TLE_LINE2":"2 53393  53.2142 291.6502 0000907 119.7116 240.3967 15.08799898 35653","LAUNCH_DATE":"2022-08-10"},{"CENTER_NAME":"EARTH","PERIAPSIS":"539.132","FILE":"3871063","RCS_SIZE":"LARGE","MEAN_MOTION":"15.08804877","CLASSIFICATION_TYPE":"U","TIME_SYSTEM":"UTC","MEAN_ELEMENT_THEORY":"SGP4","BSTAR":"-0.00074621000000","REV_AT_EPOCH":"3515","SITE":"AFETR","EPHEMERIS_TYPE":"0","MEAN_ANOMALY":"257.6231","OBJECT_NAME":"STARLINK-4544","COUNTRY_CODE":"US","NORAD_CAT_ID":"53394","SEMIMAJOR_AXIS":"6917.988","DECAY_DATE":null,"ARG_OF_PERICENTER":"102.4878","EPOCH":"2023-03-25T21:22:34.383936","ELEMENT_SET_NO":"999","OBJECT_ID":"2022-097G","LAUNCH_DATE":"2022-08-10","TLE_LINE2":"2 53394  53.2154 281.3041 0001042 102.4878 257.6231 15.08804877 35150","MEAN_MOTION_DDOT":"0.0000000000000","REF_FRAME":"TEME","GP_ID":"228848005","RA_OF_ASC_NODE":"281.3041","INCLINATION":"53.2154","TLE_LINE1":"1 53394U 22097G   23084.89067574 -.00012132  00000-0 -74621-3 0  9991","OBJECT_TYPE":"PAYLOAD","MEAN_MOTION_DOT":"-0.00012132","ECCENTRICITY":"0.00010420","PERIOD":"95.440","APOAPSIS":"540.574"},{"COUNTRY_CODE":"US","SEMIMAJOR_AXIS":"6917.975","NORAD_CAT_ID":"53395","MEAN_ANOMALY":"268.6082","OBJECT_NAME":"STARLINK-4534","EPHEMERIS_TYPE":"0","BSTAR":"-0.00058745000000","TIME_SYSTEM":"UTC","MEAN_ELEMENT_THEORY":"SGP4","SITE":"AFETR","REV_AT_EPOCH":"3550","CENTER_NAME":"EARTH","CLASSIFICATION_TYPE":"U","MEAN_MOTION":"15.08809120","PERIAPSIS":"539.028","RCS_SIZE":"LARGE","FILE":"3871104","MEAN_MOTION_DOT":"-0.00009617","OBJECT_TYPE":"PAYLOAD","APOAPSIS":"540.652","ECCENTRICITY":"0.00011740","PERIOD":"95.440","REF_FRAME":"TEME","INCLINATION":"53.2156","RA_OF_ASC_NODE":"291.3816","TLE_LINE1":"1 53395U 22097H   23084.92193453 -.00009617  00000-0 -58745-3 0  9995","GP_ID":"228872478","TLE_LINE2":"2 53395  53.2156 291.3816 0001174  91.5045 268.6082 15.08809120 35505","LAUNCH_DATE":"2022-08-10","MEAN_MOTION_DDOT":"0.0000000000000","EPOCH":"2023-03-25T22:07:35.143392","ARG_OF_PERICENTER":"91.5045","DECAY_DATE":null,"OBJECT_ID":"2022-097H","ELEMENT_SET_NO":"999"},{"MEAN_ANOMALY":"272.0068","OBJECT_NAME":"STARLINK-4524","EPHEMERIS_TYPE":"0","COUNTRY_CODE":"US","NORAD_CAT_ID":"53396","SEMIMAJOR_AXIS":"6917.986","CENTER_NAME":"EARTH","MEAN_MOTION":"15.08805435","CLASSIFICATION_TYPE":"U","PERIAPSIS":"539.282","RCS_SIZE":"LARGE","FILE":"3871104","BSTAR":"-0.00051384000000","MEAN_ELEMENT_THEORY":"SGP4","TIME_SYSTEM":"UTC","SITE":"AFETR","REV_AT_EPOCH":"3549","REF_FRAME":"TEME","INCLINATION":"53.2134","RA_OF_ASC_NODE":"291.7535","TLE_LINE1":"1 53396U 22097J   23084.84098354 -.00008448  00000-0 -51384-3 0  9994","GP_ID":"228873229","MEAN_MOTION_DOT":"-0.00008448","OBJECT_TYPE":"PAYLOAD","APOAPSIS":"540.420","PERIOD":"95.440","ECCENTRICITY":"0.00008230","EPOCH":"2023-03-25T20:11:00.977856","ARG_OF_PERICENTER":"88.1018","DECAY_DATE":null,"OBJECT_ID":"2022-097J","ELEMENT_SET_NO":"999","TLE_LINE2":"2 53396  53.2134 291.7535 0000823  88.1018 272.0068 15.08805435 35492","LAUNCH_DATE":"2022-08-10","MEAN_MOTION_DDOT":"0.0000000000000"}];
